{"type": "FeatureCollection", "features": [ {"type": "Feature", "properties": {"norad_id": 66909, "name": "1998-067XV", "group": "stations", "lat": 50.58207186108039, "lon": -79.92527942178934, "alt_km": 408.3681973960229, "timestamp": "2025-12-06T05:40:08.031294+00:00", "meta": {"OBJECT_NAME": "1998-067XV", "OBJECT_ID": "1998-067XV", "EPOCH": "2025-12-04T23:50:52.274976", "MEAN_MOTION": 15.50264508, "ECCENTRICITY": 0.0005497, "INCLINATION": 51.629, "RA_OF_ASC_NODE": 180.8148, "ARG_OF_PERICENTER": 185.5625, "MEAN_ANOMALY": 174.5303, "EPHEMERIS_TYPE": 0, "CLASSIFICATION_TYPE": "U", "NORAD_CAT_ID": 66909, "ELEMENT_SET_NO": 999, "REV_AT_EPOCH": 41, "BSTAR": 0.0015898, "MEAN_MOTION_DOT": 0.00092243, "MEAN_MOTION_DDOT": 0}, "tle": {"line1": "1 66909U 98067XV  25338.99366059  .00092243  00000+0  15898-2 0  9990", "line2": "2 66909  51.6290 180.8148 0005497 185.5625 174.5303 15.50264508   416"}}, "geometry": {"type": "Point", "coordinates": [-79.92527942178934, 50.58207186108039]}}, {"type": "Feature", "properties": {"norad_id": 66910, "name": "1998-067XW", "group": "stations", "lat": 49.61188299590936, "lon": -74.00851016419995, "alt_km": 406.45265539352476, "timestamp": "2025-12-06T05:40:08.031304+00:00", "meta": {"OBJECT_NAME": "1998-067XW", "OBJECT_ID": "1998-067XW", "EPOCH": "2025-12-05T01:22:59.154240", "MEAN_MOTION": 15.50553772, "ECCENTRICITY": 0.0006416, "INCLINATION": 51.6287, "RA_OF_ASC_NODE": 180.4926, "ARG_OF_PERICENTER": 172.5367, "MEAN_ANOMALY": 187.5719, "EPHEMERIS_TYPE": 0, "CLASSIFICATION_TYPE": "U", "NORAD_CAT_ID": 66910, "ELEMENT_SET_NO": 999, "REV_AT_EPOCH": 42, "BSTAR": 0.0014713, "MEAN_MOTION_DOT": 0.00086166, "MEAN_MOTION_DDOT": 0}, "tle": {"line1": "1 66910U 98067XW  25339.05762910  .00086166  00000+0  14713-2 0  9998", "line2": "2 66910  51.6287 180.4926 0006416 172.5367 187.5719 15.50553772   425"}}, "geometry": {"type": "Point", "coordinates": [-74.00851016419995, 49.61188299590936]}}, {"type": "Feature", "properties": {"norad_id": 66911, "name": "1998-067XX", "group": "stations", "lat": 49.50561886737191, "lon": -73.46589734706744, "alt_km": 406.26379740566244, "timestamp": "2025-12-06T05:40:08.031314+00:00", "meta": {"OBJECT_NAME": "1998-067XX", "OBJECT_ID": "1998-067XX", "EPOCH": "2025-12-05T01:22:57.118656", "MEAN_MOTION": 15.50597834, "ECCENTRICITY": 0.0006353, "INCLINATION": 51.6287, "RA_OF_ASC_NODE": 180.4927, "ARG_OF_PERICENTER": 172.5612, "MEAN_ANOMALY": 187.5473, "EPHEMERIS_TYPE": 0, "CLASSIFICATION_TYPE": "U", "NORAD_CAT_ID": 66911, "ELEMENT_SET_NO": 999, "REV_AT_EPOCH": 41, "BSTAR": 0.001631828, "MEAN_MOTION_DOT": 0.00095888, "MEAN_MOTION_DDOT": 0}, "tle": {"line1": "1 66911U 98067XX  25339.05760554  .00095888  00000+0  16318-2 0  9995", "line2": "2 66911  51.6287 180.4927 0006353 172.5612 187.5473 15.50597834   413"}}, "geometry": {"type": "Point", "coordinates": [-73.46589734706744, 49.50561886737191]}}, {"type": "Feature", "properties": {"norad_id": 66912, "name": "1998-067XY", "group": "stations", "lat": 50.8523707982189, "lon": -82.08678384898147, "alt_km": 408.85158041895284, "timestamp": "2025-12-06T05:40:08.031326+00:00", "meta": {"OBJECT_NAME": "1998-067XY", "OBJECT_ID": "1998-067XY", "EPOCH": "2025-12-04T20:45:22.504320", "MEAN_MOTION": 15.50112041, "ECCENTRICITY": 0.00053164, "INCLINATION": 51.6281, "RA_OF_ASC_NODE": 181.4549, "ARG_OF_PERICENTER": 183.1842, "MEAN_ANOMALY": 176.9114, "EPHEMERIS_TYPE": 0, "CLASSIFICATION_TYPE": "U", "NORAD_CAT_ID": 66912, "ELEMENT_SET_NO": 999, "REV_AT_EPOCH": 38, "BSTAR": 0.0012051689, "MEAN_MOTION_DOT": 0.00069233, "MEAN_MOTION_DDOT": 0}, "tle": {"line1": "1 66912U 98067XY  25338.86484380  .00069233  00000+0  12052-2 0  9990", "line2": "2 66912  51.6281 181.4549 0005316 183.1842 176.9114 15.50112041   383"}}, "geometry": {"type": "Point", "coordinates": [-82.08678384898147, 50.8523707982189]}}]}